NORAD_CAT_ID,OBJECT_NAME,OBJECT_TYPE,EPOCH,MEAN_MOTION,ECCENTRICITY,INCLINATION,RA_OF_ASC_NODE,ARG_OF_PERICENTER,MEAN_ANOMALY,BSTAR,MEAN_MOTION_DOT,MEAN_MOTION_DDOT,TLE_LINE0,TLE_LINE1,TLE_LINE2,SEMIMAJOR_AXIS,PERIOD,APOGEE,PERIGEE,DECAYED
53828.0,STARLINK-4760,PAYLOAD,2023-04-27 18:30:56,15.08867132,8.64e-05,53.2159,323.8267,131.3711,228.7356,0.00090492,0.00014154,0.0,0 STARLINK-4760,1 53828U 22114L   23117.77149135  .00014154  00000-0  90492-3 0  9999,2 53828  53.2159 323.8267 0000864 131.3711 228.7356 15.08867132 34246,6917.797,95.436,540.26,539.065,0.0
53828.0,STARLINK-4760,PAYLOAD,2023-04-28 07:14:01,15.08848098,0.0001473,53.2161,321.4474,116.0901,244.0243,0.00051118,7.859e-05,0.0,0 STARLINK-4760,1 53828U 22114L   23118.30140817  .00007859  00000-0  51118-3 0  9993,2 53828  53.2161 321.4474 0001473 116.0901 244.0243 15.08848098 34326,6917.856,95.437,540.74,538.702,0.0
53828.0,STARLINK-4760,PAYLOAD,2023-04-28 19:57:06,15.08840774,6.4e-06,53.2181,319.0709,70.3563,289.7436,-4.4205e-05,-9.91e-06,0.0,0 STARLINK-4760,1 53828U 22114L   23118.83132724 -.00000991  00000-0 -44205-4 0  9991,2 53828  53.2181 319.0709 0000064  70.3563 289.7436 15.08840774 34405,6917.878,95.438,539.787,539.699,0.0
53828.0,STARLINK-4760,PAYLOAD,2023-04-29 00:43:15,15.08851849,6.54e-05,53.216,318.177,101.8122,258.2944,0.00053497,8.239e-05,0.0,0 STARLINK-4760,1 53828U 22114L   23119.03004622  .00008239  00000-0  53497-3 0  9992,2 53828  53.2160 318.1770 0000654 101.8122 258.2944 15.08851849 34439,6917.844,95.437,540.162,539.257,0.0
53828.0,STARLINK-4760,PAYLOAD,2023-04-29 18:12:30,15.08848174,8.83e-05,53.217,314.9059,99.5835,260.5257,0.00032706,4.922e-05,0.0,0 STARLINK-4760,1 53828U 22114L   23119.75868593  .00004922  00000-0  32706-3 0  9991,2 53828  53.2170 314.9059 0000883  99.5835 260.5257 15.08848174 34544,6917.855,95.437,540.331,539.11,0.0
53828.0,STARLINK-4760,PAYLOAD,2023-04-30 11:41:45,15.08840606,9.52e-05,53.2166,311.6349,90.1479,269.9622,7.7923e-05,9.53e-06,0.0,0 STARLINK-4760,1 53828U 22114L   23120.48732738  .00000953  00000-0  77923-4 0  9995,2 53828  53.2166 311.6349 0000952  90.1479 269.9622 15.08840606 34656,6917.879,95.438,540.402,539.085,0.0
53828.0,STARLINK-4760,PAYLOAD,2023-05-01 11:32:32,15.08836896,7.81e-05,53.2165,307.175,91.0157,269.0924,1.1779e-05,-1e-06,0.0,0 STARLINK-4760,1 53828U 22114L   23121.48092861 -.00000100  00000-0  11779-4 0  9994,2 53828  53.2165 307.1750 0000781  91.0157 269.0924 15.08836896 35343,6917.89,95.438,540.295,539.215,0.0
53828.0,STARLINK-4760,PAYLOAD,2023-05-01 17:54:04,15.08837295,7.58e-05,53.2171,305.9863,101.4405,258.6673,-1.6552e-05,-5.51e-06,0.0,0 STARLINK-4760,1 53828U 22114L   23121.74588910 -.00000551  00000-0 -16552-4 0  9993,2 53828  53.2171 305.9863 0000758 101.4405 258.6673 15.08837295 34840,6917.889,95.438,540.278,539.229,0.0
53828.0,STARLINK-4760,PAYLOAD,2023-05-02 11:23:19,15.08842981,7.71e-05,53.2174,302.7151,97.1494,262.9585,0.0002206,3.225e-05,0.0,0 STARLINK-4760,1 53828U 22114L   23122.47452902  .00003225  00000-0  22060-3 0  9994,2 53828  53.2174 302.7151 0000771  97.1494 262.9585 15.08842981 35492,6917.871,95.437,540.27,539.203,0.0
53828.0,STARLINK-4760,PAYLOAD,2023-05-02 16:09:28,15.08844808,7.59e-05,53.2176,301.8232,99.0227,261.0851,0.00020899,3.04e-05,0.0,0 STARLINK-4760,1 53828U 22114L   23122.67324785  .00003040  00000-0  20899-3 0  9996,2 53828  53.2176 301.8232 0000759  99.0227 261.0851 15.08844808 35525,6917.866,95.437,540.256,539.206,0.0
53828.0,STARLINK-4760,PAYLOAD,2023-05-03 04:52:33,15.08843697,5.87e-05,53.2153,299.4433,100.2141,259.8917,0.00015547,2.188e-05,0.0,0 STARLINK-4760,1 53828U 22114L   23123.20316724  .00002188  00000-0  15547-3 0  9996,2 53828  53.2153 299.4433 0000587 100.2141 259.8917 15.08843697 35066,6917.869,95.437,540.14,539.328,0.0
53828.0,STARLINK-4760,PAYLOAD,2023-05-03 12:49:29,15.08837151,0.0001027,53.2175,297.9571,94.1654,265.9456,8.8148e-05,1.115e-05,0.0,0 STARLINK-4760,1 53828U 22114L   23123.53437251  .00001115  00000-0  88148-4 0  9998,2 53828  53.2175 297.9571 0001027  94.1654 265.9456 15.08837151 35116,6917.889,95.438,540.465,539.044,0.0
53828.0,STARLINK-4760,PAYLOAD,2023-05-03 20:46:25,15.08840333,7.82e-05,53.2165,296.469,108.1731,251.9347,9.8591e-05,1.282e-05,0.0,0 STARLINK-4760,1 53828U 22114L   23123.86556990  .00001282  00000-0  98591-4 0  9994,2 53828  53.2165 296.4690 0000782 108.1731 251.9347 15.08840333 35705,6917.879,95.438,540.285,539.203,0.0
53828.0,STARLINK-4760,PAYLOAD,2023-05-04 11:04:53,15.08839288,7.67e-05,53.216,293.7926,76.0035,284.1042,2.7229e-05,1.46e-06,0.0,0 STARLINK-4760,1 53828U 22114L   23124.46173235  .00000146  00000-0  27229-4 0  9996,2 53828  53.2160 293.7926 0000767  76.0035 284.1042 15.08839288 35791,6917.883,95.438,540.278,539.217,0.0
53828.0,STARLINK-4760,PAYLOAD,2023-05-04 20:37:12,15.08848525,7.36e-05,53.2158,292.0077,77.7435,282.364,0.00014264,1.984e-05,0.0,0 STARLINK-4760,1 53828U 22114L   23124.85916729  .00001984  00000-0  14264-3 0  9997,2 53828  53.2158 292.0077 0000736  77.7435 282.3640 15.08848525 35311,6917.854,95.437,540.228,539.21,0.0
53828.0,STARLINK-4760,PAYLOAD,2023-05-05 15:41:50,15.08839631,7.25e-05,53.2151,288.4386,94.583,265.5245,0.00014143,1.964e-05,0.0,0 STARLINK-4760,1 53828U 22114L   23125.65405267  .00001964  00000-0  14143-3 0  9990,2 53828  53.2151 288.4386 0000725  94.5830 265.5245 15.08839631 35435,6917.882,95.438,540.248,539.245,0.0
53828.0,STARLINK-4760,PAYLOAD,2023-05-05 18:52:36,15.0884433,7.42e-05,53.2151,287.8444,80.0136,280.094,0.00016188,2.29e-05,0.0,0 STARLINK-4760,1 53828U 22114L   23125.78653126  .00002290  00000-0  16188-3 0  9997,2 53828  53.2151 287.8444 0000742  80.0136 280.0940 15.08844330 35998,6917.867,95.437,540.245,539.219,0.0
53828.0,STARLINK-4760,PAYLOAD,2023-05-06 15:32:37,15.08844214,7.76e-05,53.2147,283.9792,74.6773,285.4304,0.00015174,2.128e-05,0.0,0 STARLINK-4760,1 53828U 22114L   23126.64765237  .00002128  00000-0  15174-3 0  9994,2 53828  53.2147 283.9792 0000776  74.6773 285.4304 15.08844214 36129,6917.868,95.437,540.269,539.196,0.0
53828.0,STARLINK-4760,PAYLOAD,2023-05-06 17:08:00,15.08846627,8.16e-05,53.2146,283.6811,87.3356,272.773,0.00016021,2.263e-05,0.0,0 STARLINK-4760,1 53828U 22114L   23126.71389098  .00002263  00000-0  16021-3 0  9991,2 53828  53.2146 283.6811 0000816  87.3356 272.7730 15.08846627 35592,6917.86,95.437,540.29,539.161,0.0
53828.0,STARLINK-4760,PAYLOAD,2023-05-07 13:48:01,15.08833307,6.57e-05,53.2144,279.816,68.3322,291.774,4.7692e-05,4.71e-06,0.0,0 STARLINK-4760,1 53828U 22114L   23127.57501993  .00000471  00000-0  47692-4 0  9994,2 53828  53.2144 279.8160 0000657  68.3322 291.7740 15.08833307 36267,6917.901,95.438,540.22,539.311,0.0
53828.0,STARLINK-4760,PAYLOAD,2023-05-07 16:58:48,15.08833373,6.25e-05,53.2167,279.2179,84.5253,275.581,8.4932e-05,1.064e-05,0.0,0 STARLINK-4760,1 53828U 22114L   23127.70750032  .00001064  00000-0  84932-4 0  9996,2 53828  53.2167 279.2179 0000625  84.5253 275.5810 15.08833373 35747,6917.901,95.438,540.198,539.333,0.0
53828.0,STARLINK-4760,PAYLOAD,2023-05-08 16:49:34,15.08850736,5.61e-05,53.2147,274.7612,102.9731,257.1324,0.00028537,4.258e-05,0.0,0 STARLINK-4760,1 53828U 22114L   23128.70109311  .00004258  00000-0  28537-3 0  9991,2 53828  53.2147 274.7612 0000561 102.9731 257.1324 15.08850736 35896,6917.848,95.437,540.101,539.324,0.0
53828.0,STARLINK-4760,PAYLOAD,2023-05-09 13:29:35,15.08843246,3.54e-05,53.2154,270.8944,51.8559,308.2465,0.00018082,2.592e-05,0.0,0 STARLINK-4760,1 53828U 22114L   23129.56221730  .00002592  00000-0  18082-3 0  9999,2 53828  53.2154 270.8944 0000354  51.8559 308.2465 15.08843246 36566,6917.87,95.437,539.98,539.491,0.0
53828.0,STARLINK-4760,PAYLOAD,2023-05-10 11:44:59,15.08836575,5.4e-05,53.215,266.733,84.5744,275.531,-6.3567e-05,-1.299e-05,0.0,0 STARLINK-4760,1 53828U 22114L   23130.48957822 -.00001299  00000-0 -63567-4 0  9994,2 53828  53.2150 266.7330 0000540  84.5744 275.5310 15.08836575 36709,6917.891,95.438,540.129,539.382,0.0
53828.0,STARLINK-4760,PAYLOAD,2023-05-10 16:31:08,15.08843622,4.2e-05,53.2157,265.8412,105.67,254.4338,3.0195e-05,1.93e-06,0.0,0 STARLINK-4760,1 53828U 22114L   23130.68829265  .00000193  00000-0  30195-4 0  9996,2 53828  53.2157 265.8412 0000420 105.6700 254.4338 15.08843622 36191,6917.869,95.437,540.025,539.444,0.0
53828.0,STARLINK-4760,PAYLOAD,2023-05-11 11:35:46,15.08838899,4.13e-05,53.2152,262.2709,66.9573,293.1463,-1.8228e-06,-3.16e-06,0.0,0 STARLINK-4760,1 53828U 22114L   23131.48317658 -.00000316  00000-0 -18228-5 0  9996,2 53828  53.2152 262.2709 0000413  66.9573 293.1463 15.08838899 36857,6917.884,95.438,540.034,539.463,0.0
53828.0,STARLINK-4760,PAYLOAD,2023-05-11 16:21:55,15.08850396,6.21e-05,53.2161,261.3771,67.2996,292.8062,0.00017962,2.573e-05,0.0,0 STARLINK-4760,1 53828U 22114L   23131.68189288  .00002573  00000-0  17962-3 0  9991,2 53828  53.2161 261.3771 0000621  67.2996 292.8062 15.08850396 36341,6917.849,95.437,540.143,539.284,0.0
53828.0,STARLINK-4760,PAYLOAD,2023-05-12 01:54:14,15.08843483,5.31e-05,53.216,259.5965,84.2221,275.8831,0.00011328,1.516e-05,0.0,0 STARLINK-4760,1 53828U 22114L   23132.07933644  .00001516  00000-0  11328-3 0  9994,2 53828  53.2160 259.5965 0000531  84.2221 275.8831 15.08843483 36405,6917.87,95.437,540.102,539.367,0.0
53828.0,STARLINK-4760,PAYLOAD,2023-05-12 11:26:33,15.08835882,1.16e-05,53.2159,257.8124,43.6145,316.4856,0.00013084,1.795e-05,0.0,0 STARLINK-4760,1 53828U 22114L   23132.47677951  .00001795  00000-0  13084-3 0  9994,2 53828  53.2159 257.8124 0000116  43.6145 316.4856 15.08835882 36463,6917.893,95.438,539.838,539.678,0.0
53828.0,STARLINK-4760,PAYLOAD,2023-05-13 01:45:01,15.08847433,5.61e-05,53.2156,255.1335,96.4146,263.691,0.00013224,1.818e-05,0.0,0 STARLINK-4760,1 53828U 22114L   23133.07293492  .00001818  00000-0  13224-3 0  9997,2 53828  53.2156 255.1335 0000561  96.4146 263.6910 15.08847433 36555,6917.858,95.437,540.111,539.335,0.0
